[{"nameru":"Усть-Каменогорск","persons":"3694","namekz":"Өскемен","amount ":"321485","id":"1","families":"862","region":"ВКО"},{"nameru":"Семей","persons":"13210","namekz":"Семей","amount ":"1284666","id":"2","families":"3001","region":"ВКО"},{"nameru":"Риддер","persons":"779","namekz":"Риддер","amount ":"79989","id":"3","families":"201","region":"ВКО"},{"nameru":"Курчатов","persons":"165","namekz":"Курчатов","amount ":"11660","id":"4","families":"37","region":"ВКО"},{"nameru":"Абайский","persons":"1256","namekz":"Абай","amount ":"107802","id":"5","families":"219","region":"ВКО"},{"nameru":"Аягозский","persons":"5169","namekz":"Аягөз","amount ":"486666","id":"6","families":"1008","region":"ВКО"},{"nameru":"Бескарагайский","persons":"1192","namekz":"Бесқарағай","amount ":"115082","id":"7","families":"249","region":"ВКО"},{"nameru":"Бородулихинский","persons":"1287","namekz":"Бородулиха","amount ":"99995","id":"8","families":"279","region":"ВКО"},{"nameru":"Глубоковский","persons":"944","namekz":"Глубокое","amount ":"77259","id":"9","families":"194","region":"ВКО"},{"nameru":"Жарминский","persons":"1866","namekz":"Жарма","amount ":"147760","id":"10","families":"374","region":"ВКО"},{"nameru":"Зайсанский","persons":"2412","namekz":"Зайсан","amount ":"212768","id":"11","families":"464","region":"ВКО"},{"nameru":"Зыряновский","persons":"841","namekz":"Зырян","amount ":"74134","id":"12","families":"187","region":"ВКО"},{"nameru":"Катон-Карагайский","persons":"1103","namekz":"Катон-Қарағай","amount ":"96642","id":"13","families":"231","region":"ВКО"},{"nameru":"Кокпектинский","persons":"1262","namekz":"Көкпекті","amount ":"106863","id":"14","families":"247","region":"ВКО"},{"nameru":"Курчумский","persons":"2548","namekz":"Күршім","amount ":"218082","id":"15","families":"502","region":"ВКО"},{"nameru":"Тарбагатайский","persons":"6989","namekz":"Тарбағатай","amount ":"649221","id":"16","families":"1316","region":"ВКО"},{"nameru":"Уланский","persons":"1372","namekz":"Ұлан","amount ":"111167","id":"17","families":"264","region":"ВКО"},{"nameru":"Урджарский","persons":"5815","namekz":"Үржар","amount ":"485426","id":"18","families":"1142","region":"ВКО"},{"nameru":"Шемонаихинский","persons":"777","namekz":"Шемонаиха","amount ":"59225","id":"19","families":"192","region":"ВКО"}]
